start=new Date('2022-12-16T00:00:00.000Z').valueOf();
sats=[{"BSTAR":"0.00005084400000","OBJECT_NAME":"STARLINK-3817","EPOCH":"2022-12-15T17:09:31.961664","SEMIMAJOR_AXIS":"6917.884","ELEMENT_SET_NO":"999","FILE":"3702726","MEAN_MOTION_DOT":"0.00000521","APOAPSIS":"541.550","DECAY_DATE":null,"REV_AT_EPOCH":"3778","EPHEMERIS_TYPE":"0","ARG_OF_PERICENTER":"39.2232","OBJECT_TYPE":"PAYLOAD","TLE_LINE2":"2 52367  53.2189  86.2253 0002603  39.2232 320.8948 15.08838725 37787","GP_ID":"220528894","REF_FRAME":"TEME","NORAD_CAT_ID":"52367","COUNTRY_CODE":"US","CENTER_NAME":"EARTH","TIME_SYSTEM":"UTC","MEAN_ANOMALY":"320.8948","CLASSIFICATION_TYPE":"U","TLE_LINE1":"1 52367U 22045AN  22349.71495326  .00000521  00000-0  50844-4 0  9996","ECCENTRICITY":"0.00026030","LAUNCH_DATE":"2022-04-29","OBJECT_ID":"2022-045AN","RCS_SIZE":"LARGE","MEAN_MOTION":"15.08838725","INCLINATION":"53.2189","MEAN_ELEMENT_THEORY":"SGP4","PERIAPSIS":"537.949","MEAN_MOTION_DDOT":"0.0000000000000","SITE":"AFETR","PERIOD":"95.438","RA_OF_ASC_NODE":"86.2253"},{"EPHEMERIS_TYPE":"0","ARG_OF_PERICENTER":"37.9396","REV_AT_EPOCH":"3778","DECAY_DATE":null,"APOAPSIS":"541.824","MEAN_MOTION_DOT":"0.00002841","FILE":"3702726","ELEMENT_SET_NO":"999","SEMIMAJOR_AXIS":"6917.862","EPOCH":"2022-12-15T18:18:25.072416","OBJECT_NAME":"STARLINK-3834","BSTAR":"0.00019652000000","COUNTRY_CODE":"US","CENTER_NAME":"EARTH","NORAD_CAT_ID":"52368","REF_FRAME":"TEME","TLE_LINE2":"2 52368  53.2180  86.0122 0003031  37.9396 322.1809 15.08845978 37783","GP_ID":"220529144","OBJECT_TYPE":"PAYLOAD","RCS_SIZE":"LARGE","MEAN_MOTION":"15.08845978","OBJECT_ID":"2022-045AP","ECCENTRICITY":"0.00030310","TLE_LINE1":"1 52368U 22045AP  22349.76279019  .00002841  00000-0  19652-3 0  9999","LAUNCH_DATE":"2022-04-29","CLASSIFICATION_TYPE":"U","MEAN_ANOMALY":"322.1809","TIME_SYSTEM":"UTC","PERIOD":"95.437","RA_OF_ASC_NODE":"86.0122","MEAN_MOTION_DDOT":"0.0000000000000","SITE":"AFETR","PERIAPSIS":"537.630","MEAN_ELEMENT_THEORY":"SGP4","INCLINATION":"53.2180"},{"DECAY_DATE":null,"APOAPSIS":"541.587","FILE":"3702726","MEAN_MOTION_DOT":"0.00001335","REV_AT_EPOCH":"3778","EPHEMERIS_TYPE":"0","ARG_OF_PERICENTER":"23.8086","EPOCH":"2022-12-15T17:04:14.240352","BSTAR":"0.00010198000000","OBJECT_NAME":"STARLINK-3841","SEMIMAJOR_AXIS":"6917.893","ELEMENT_SET_NO":"999","NORAD_CAT_ID":"52369","REF_FRAME":"TEME","CENTER_NAME":"EARTH","COUNTRY_CODE":"US","GP_ID":"220529395","TLE_LINE2":"2 52369  53.2187  86.2507 0002643  23.8086 336.3028 15.08835735 37788","OBJECT_TYPE":"PAYLOAD","OBJECT_ID":"2022-045AQ","LAUNCH_DATE":"2022-04-29","TLE_LINE1":"1 52369U 22045AQ  22349.71127593  .00001335  00000-0  10198-3 0  9997","ECCENTRICITY":"0.00026430","RCS_SIZE":"LARGE","MEAN_MOTION":"15.08835735","TIME_SYSTEM":"UTC","CLASSIFICATION_TYPE":"U","MEAN_ANOMALY":"336.3028","MEAN_MOTION_DDOT":"0.0000000000000","SITE":"AFETR","RA_OF_ASC_NODE":"86.2507","PERIOD":"95.438","MEAN_ELEMENT_THEORY":"SGP4","PERIAPSIS":"537.930","INCLINATION":"53.2187"},{"TIME_SYSTEM":"UTC","MEAN_ANOMALY":"324.0026","CLASSIFICATION_TYPE":"U","LAUNCH_DATE":"2022-04-29","TLE_LINE1":"1 52370U 22045AR  22349.70391592 -.00000843  00000-0 -34847-4 0  9993","ECCENTRICITY":"0.00026180","OBJECT_ID":"2022-045AR","RCS_SIZE":"LARGE","MEAN_MOTION":"15.08834147","INCLINATION":"53.2172","MEAN_ELEMENT_THEORY":"SGP4","PERIAPSIS":"537.952","MEAN_MOTION_DDOT":"0.0000000000000","SITE":"AFETR","RA_OF_ASC_NODE":"86.2884","PERIOD":"95.438","BSTAR":"-0.00003484700000","OBJECT_NAME":"STARLINK-3827","EPOCH":"2022-12-15T16:53:38.335488","SEMIMAJOR_AXIS":"6917.898","ELEMENT_SET_NO":"999","MEAN_MOTION_DOT":"-0.00000843","FILE":"3702726","APOAPSIS":"541.574","DECAY_DATE":null,"REV_AT_EPOCH":"3778","ARG_OF_PERICENTER":"36.1142","EPHEMERIS_TYPE":"0","OBJECT_TYPE":"PAYLOAD","TLE_LINE2":"2 52370  53.2172  86.2884 0002618  36.1142 324.0026 15.08834147 37782","GP_ID":"220529645","REF_FRAME":"TEME","NORAD_CAT_ID":"52370","COUNTRY_CODE":"US","CENTER_NAME":"EARTH"},{"MEAN_MOTION":"15.08839541","RCS_SIZE":"LARGE","TLE_LINE1":"1 52371U 22045AS  22349.76647160  .00000048  00000-0  21126-4 0  9996","ECCENTRICITY":"0.00025680","LAUNCH_DATE":"2022-04-29","OBJECT_ID":"2022-045AS","MEAN_ANOMALY":"319.3720","CLASSIFICATION_TYPE":"U","TIME_SYSTEM":"UTC","PERIOD":"95.438","RA_OF_ASC_NODE":"86.0007","SITE":"AFETR","MEAN_MOTION_DDOT":"0.0000000000000","INCLINATION":"53.2179","MEAN_ELEMENT_THEORY":"SGP4","PERIAPSIS":"537.970","REV_AT_EPOCH":"3778","ARG_OF_PERICENTER":"40.7464","EPHEMERIS_TYPE":"0","MEAN_MOTION_DOT":"0.00000048","FILE":"3702726","DECAY_DATE":null,"APOAPSIS":"541.523","SEMIMAJOR_AXIS":"6917.882","ELEMENT_SET_NO":"999","BSTAR":"0.00002112600000","OBJECT_NAME":"STARLINK-3798","EPOCH":"2022-12-15T18:23:43.146240","COUNTRY_CODE":"US","CENTER_NAME":"EARTH","REF_FRAME":"TEME","NORAD_CAT_ID":"52371","OBJECT_TYPE":"PAYLOAD","TLE_LINE2":"2 52371  53.2179  86.0007 0002568  40.7464 319.3720 15.08839541 37788","GP_ID":"220528395"},{"MEAN_ELEMENT_THEORY":"SGP4","PERIAPSIS":"537.749","INCLINATION":"53.2183","SITE":"AFETR","MEAN_MOTION_DDOT":"0.0000000000000","RA_OF_ASC_NODE":"86.0344","PERIOD":"95.438","TIME_SYSTEM":"UTC","CLASSIFICATION_TYPE":"U","MEAN_ANOMALY":"328.9595","OBJECT_ID":"2022-045AT","TLE_LINE1":"1 52372U 22045AT  22349.75911049  .00001353  00000-0  10310-3 0  9998","ECCENTRICITY":"0.00028990","LAUNCH_DATE":"2022-04-29","RCS_SIZE":"LARGE","MEAN_MOTION":"15.08836952","GP_ID":"220528644","TLE_LINE2":"2 52372  53.2183  86.0344 0002899  31.1569 328.9595 15.08836952 37784","OBJECT_TYPE":"PAYLOAD","NORAD_CAT_ID":"52372","REF_FRAME":"TEME","COUNTRY_CODE":"US","CENTER_NAME":"EARTH","EPOCH":"2022-12-15T18:13:07.146336","BSTAR":"0.00010310000000","OBJECT_NAME":"STARLINK-3796","SEMIMAJOR_AXIS":"6917.890","ELEMENT_SET_NO":"999","DECAY_DATE":null,"APOAPSIS":"541.760","MEAN_MOTION_DOT":"0.00001353","FILE":"3702726","REV_AT_EPOCH":"3778","EPHEMERIS_TYPE":"0","ARG_OF_PERICENTER":"31.1569"},{"SITE":"AFETR","MEAN_MOTION_DDOT":"0.0000000000000","PERIOD":"95.437","RA_OF_ASC_NODE":"86.3760","INCLINATION":"53.2173","MEAN_ELEMENT_THEORY":"SGP4","PERIAPSIS":"538.273","TLE_LINE1":"1 52373U 22045AU  22349.68183496  .00002714  00000-0  18852-3 0  9999","ECCENTRICITY":"0.00021190","LAUNCH_DATE":"2022-04-29","OBJECT_ID":"2022-045AU","MEAN_MOTION":"15.08842255","RCS_SIZE":"LARGE","TIME_SYSTEM":"UTC","MEAN_ANOMALY":"316.2946","CLASSIFICATION_TYPE":"U","REF_FRAME":"TEME","NORAD_CAT_ID":"52373","CENTER_NAME":"EARTH","COUNTRY_CODE":"US","OBJECT_TYPE":"PAYLOAD","TLE_LINE2":"2 52373  53.2173  86.3760 0002119  43.8214 316.2946 15.08842255 37784","GP_ID":"220529896","MEAN_MOTION_DOT":"0.00002714","FILE":"3702726","APOAPSIS":"541.204","DECAY_DATE":null,"ARG_OF_PERICENTER":"43.8214","EPHEMERIS_TYPE":"0","REV_AT_EPOCH":"3778","OBJECT_NAME":"STARLINK-3550","BSTAR":"0.00018852000000","EPOCH":"2022-12-15T16:21:50.540544","ELEMENT_SET_NO":"999","SEMIMAJOR_AXIS":"6917.873"},{"TIME_SYSTEM":"UTC","MEAN_ANOMALY":"322.5951","CLASSIFICATION_TYPE":"U","TLE_LINE1":"1 52374U 22045AV  22349.68551292  .00000141  00000-0  26961-4 0  9996","LAUNCH_DATE":"2022-04-29","ECCENTRICITY":"0.00020890","OBJECT_ID":"2022-045AV","RCS_SIZE":"LARGE","MEAN_MOTION":"15.08840430","INCLINATION":"53.2178","MEAN_ELEMENT_THEORY":"SGP4","PERIAPSIS":"538.299","MEAN_MOTION_DDOT":"0.0000000000000","SITE":"AFETR","PERIOD":"95.438","RA_OF_ASC_NODE":"86.3580","OBJECT_NAME":"STARLINK-3762","BSTAR":"0.00002696100000","EPOCH":"2022-12-15T16:27:08.316288","ELEMENT_SET_NO":"999","SEMIMAJOR_AXIS":"6917.879","MEAN_MOTION_DOT":"0.00000141","FILE":"3702726","DECAY_DATE":null,"APOAPSIS":"541.189","EPHEMERIS_TYPE":"0","ARG_OF_PERICENTER":"37.5187","REV_AT_EPOCH":"3778","OBJECT_TYPE":"PAYLOAD","GP_ID":"220530146","TLE_LINE2":"2 52374  53.2178  86.3580 0002089  37.5187 322.5951 15.08840430 37784","REF_FRAME":"TEME","NORAD_CAT_ID":"52374","CENTER_NAME":"EARTH","COUNTRY_CODE":"US"},{"PERIOD":"95.438","RA_OF_ASC_NODE":"86.3553","MEAN_MOTION_DDOT":"0.0000000000000","SITE":"AFETR","PERIAPSIS":"538.287","MEAN_ELEMENT_THEORY":"SGP4","INCLINATION":"53.2190","MEAN_MOTION":"15.08838654","RCS_SIZE":"LARGE","OBJECT_ID":"2022-045AW","ECCENTRICITY":"0.00021140","TLE_LINE1":"1 52375U 22045AW  22349.68919143  .00000238  00000-0  33073-4 0  9999","LAUNCH_DATE":"2022-04-29","CLASSIFICATION_TYPE":"U","MEAN_ANOMALY":"317.8992","TIME_SYSTEM":"UTC","COUNTRY_CODE":"US","CENTER_NAME":"EARTH","NORAD_CAT_ID":"52375","REF_FRAME":"TEME","GP_ID":"220528895","TLE_LINE2":"2 52375  53.2190  86.3553 0002114  42.2163 317.8992 15.08838654 37782","OBJECT_TYPE":"PAYLOAD","REV_AT_EPOCH":"3778","EPHEMERIS_TYPE":"0","ARG_OF_PERICENTER":"42.2163","APOAPSIS":"541.212","DECAY_DATE":null,"MEAN_MOTION_DOT":"0.00000238","FILE":"3702726","SEMIMAJOR_AXIS":"6917.885","ELEMENT_SET_NO":"999","EPOCH":"2022-12-15T16:32:26.139552","BSTAR":"0.00003307300000","OBJECT_NAME":"STARLINK-3785"},{"INCLINATION":"53.2183","MEAN_ELEMENT_THEORY":"SGP4","PERIAPSIS":"538.205","RA_OF_ASC_NODE":"86.3916","PERIOD":"95.437","SITE":"AFETR","MEAN_MOTION_DDOT":"0.0000000000000","MEAN_ANOMALY":"316.4538","CLASSIFICATION_TYPE":"U","TIME_SYSTEM":"UTC","RCS_SIZE":"LARGE","MEAN_MOTION":"15.08842944","TLE_LINE1":"1 52376U 22045AX  22349.67815422  .00000758  00000-0  65717-4 0  9991","ECCENTRICITY":"0.00022140","LAUNCH_DATE":"2022-04-29","OBJECT_ID":"2022-045AX","OBJECT_TYPE":"PAYLOAD","TLE_LINE2":"2 52376  53.2183  86.3916 0002214  43.6629 316.4538 15.08842944 37789","GP_ID":"220529145","COUNTRY_CODE":"US","CENTER_NAME":"EARTH","REF_FRAME":"TEME","NORAD_CAT_ID":"52376","SEMIMAJOR_AXIS":"6917.871","ELEMENT_SET_NO":"999","BSTAR":"0.00006571700000","OBJECT_NAME":"STARLINK-3767","EPOCH":"2022-12-15T16:16:32.524608","REV_AT_EPOCH":"3778","EPHEMERIS_TYPE":"0","ARG_OF_PERICENTER":"43.6629","FILE":"3702726","MEAN_MOTION_DOT":"0.00000758","APOAPSIS":"541.268","DECAY_DATE":null}];
